{
    "links": {
        "self": "http://www.neowsapp.com/rest/v1/neo/3514951?api_key=iIulBulltgU6a56xZRHN4H3l9WmuAYTsLGpBGhQ2"
    },
    "id": "3514951",
    "neo_reference_id": "3514951",
    "name": "(2010 GC6)",
    "designation": "2010 GC6",
    "nasa_jpl_url": "http://ssd.jpl.nasa.gov/sbdb.cgi?sstr=3514951",
    "absolute_magnitude_h": 21.4,
    "estimated_diameter": {
        "kilometers": {
            "estimated_diameter_min": 0.1394938229,
            "estimated_diameter_max": 0.3119176705
        },
        "meters": {
            "estimated_diameter_min": 139.4938229344,
            "estimated_diameter_max": 311.9176705226
        },
        "miles": {
            "estimated_diameter_min": 0.0866774163,
            "estimated_diameter_max": 0.1938165949
        },
        "feet": {
            "estimated_diameter_min": 457.6569140361,
            "estimated_diameter_max": 1023.3519701574
        }
    },
    "is_potentially_hazardous_asteroid": false,
    "close_approach_data": [
        {
            "close_approach_date": "2010-04-04",
            "close_approach_date_full": "2010-Apr-04 23:34",
            "epoch_date_close_approach": 1270424040000,
            "relative_velocity": {
                "kilometers_per_second": "15.9670911736",
                "kilometers_per_hour": "57481.5282250126",
                "miles_per_hour": "35716.7862462585"
            },
            "miss_distance": {
                "astronomical": "0.2188770405",
                "lunar": "85.1431687545",
                "kilometers": "32743539.050703735",
                "miles": "20345891.714572143"
            },
            "orbiting_body": "Earth"
        }
    ],
    "orbital_data": {
        "orbit_id": "13",
        "orbit_determination_date": "2017-04-06 08:57:57",
        "first_observation_date": "2010-04-05",
        "last_observation_date": "2010-04-14",
        "data_arc_in_days": 9,
        "observations_used": 39,
        "orbit_uncertainty": "9",
        "minimum_orbit_intersection": ".204538",
        "jupiter_tisserand_invariant": "3.946",
        "epoch_osculation": "2455294.5",
        "eccentricity": ".3771066552759245",
        "semi_major_axis": "1.726183622464235",
        "inclination": "29.14167306924348",
        "ascending_node_longitude": "4.646228911502646",
        "orbital_period": "828.3786832405593",
        "perihelion_distance": "1.075228290204668",
        "perihelion_argument": "238.0525295596888",
        "aphelion_distance": "2.377138954723802",
        "perihelion_time": "2455343.986604508111",
        "mean_anomaly": "338.4939207353474",
        "mean_motion": ".434583853113778",
        "equinox": "J2000",
        "orbit_class": {
            "orbit_class_type": "AMO",
            "orbit_class_description": "Near-Earth asteroid orbits similar to that of 1221 Amor",
            "orbit_class_range": "1.017 AU < q (perihelion) < 1.3 AU"
        }
    },
    "is_sentry_object": false
}